{"fetched_at":"2026-03-29T16:36:15Z","count":15609,"tles":[{"name":"STARLINK-6085","line1":"1 57115U 23090Q   26087.87396544  .00019632  00000+0  10688-2 0  9997","line2":"2 57115  42.9985 157.3187 0020230 323.4668  36.4798 15.13928543153455","category":"Starlink"}]}